{"type": "FeatureCollection", "features": [ {"type": "Feature", "properties": {"norad_id": 35888, "name": "COSMOS 2251 DEB", "group": "cosmos-2251-debris", "lat": 73.92636883120254, "lon": 74.08005098992847, "alt_km": 662.688994438493, "timestamp": "2025-12-15T22:44:29.327132+00:00", "meta": {"OBJECT_NAME": "COSMOS 2251 DEB", "OBJECT_ID": "1993-036AUB", "EPOCH": "2025-12-13T17:39:16.507872", "MEAN_MOTION": 14.58323448, "ECCENTRICITY": 0.00481838, "INCLINATION": 74.0339, "RA_OF_ASC_NODE": 354.7717, "ARG_OF_PERICENTER": 126.5849, "MEAN_ANOMALY": 233.9764, "EPHEMERIS_TYPE": 0, "CLASSIFICATION_TYPE": "U", "NORAD_CAT_ID": 35888, "ELEMENT_SET_NO": 999, "REV_AT_EPOCH": 86288, "BSTAR": 0.00051301683, "MEAN_MOTION_DOT": 2.383e-05, "MEAN_MOTION_DDOT": 0}, "tle": {"line1": "1 35888U 93036AUB 25347.73560773  .00002383  00000+0  51302-3 0  9991", "line2": "2 35888  74.0339 354.7717 0048183 126.5849 233.9764 14.58323448862881"}}, "geometry": {"type": "Point", "coordinates": [74.08005098992847, 73.92636883120254]}}, {"type": "Feature", "properties": {"norad_id": 35890, "name": "COSMOS 2251 DEB", "group": "cosmos-2251-debris", "lat": 54.68256697318338, "lon": 32.57017104158044, "alt_km": 715.2520071098834, "timestamp": "2025-12-15T22:44:29.327143+00:00", "meta": {"OBJECT_NAME": "COSMOS 2251 DEB", "OBJECT_ID": "1993-036AUD", "EPOCH": "2025-12-14T23:07:29.810208", "MEAN_MOTION": 14.57520492, "ECCENTRICITY": 0.00538424, "INCLINATION": 73.9366, "RA_OF_ASC_NODE": 238.4477, "ARG_OF_PERICENTER": 2.6653, "MEAN_ANOMALY": 357.4787, "EPHEMERIS_TYPE": 0, "CLASSIFICATION_TYPE": "U", "NORAD_CAT_ID": 35890, "ELEMENT_SET_NO": 999, "REV_AT_EPOCH": 65183, "BSTAR": 0.0010358067, "MEAN_MOTION_DOT": 4.776e-05, "MEAN_MOTION_DDOT": 0}, "tle": {"line1": "1 35890U 93036AUD 25348.96353947  .00004776  00000+0  10358-2 0  9996", "line2": "2 35890  73.9366 238.4477 0053842   2.6653 357.4787 14.57520492651833"}}, "geometry": {"type": "Point", "coordinates": [32.57017104158044, 54.68256697318338]}}, {"type": "Feature", "properties": {"norad_id": 35891, "name": "COSMOS 2251 DEB", "group": "cosmos-2251-debris", "lat": 6.185764520000576, "lon": -94.79352841372793, "alt_km": 445.5131334030084, "timestamp": "2025-12-15T22:44:29.327153+00:00", "meta": {"OBJECT_NAME": "COSMOS 2251 DEB", "OBJECT_ID": "1993-036AUE", "EPOCH": "2025-12-15T00:03:56.102688", "MEAN_MOTION": 15.335426, "ECCENTRICITY": 0.00432858, "INCLINATION": 73.9883, "RA_OF_ASC_NODE": 89.017, "ARG_OF_PERICENTER": 219.4473, "MEAN_ANOMALY": 140.3579, "EPHEMERIS_TYPE": 0, "CLASSIFICATION_TYPE": "U", "NORAD_CAT_ID": 35891, "ELEMENT_SET_NO": 999, "REV_AT_EPOCH": 67255, "BSTAR": 0.00088892356, "MEAN_MOTION_DOT": 0.00029776, "MEAN_MOTION_DDOT": 0}, "tle": {"line1": "1 35891U 93036AUE 25349.00273267  .00029776  00000+0  88892-3 0  9995", "line2": "2 35891  73.9883  89.0170 0043285 219.4473 140.3579 15.33542600672556"}}, "geometry": {"type": "Point", "coordinates": [-94.79352841372793, 6.185764520000576]}}, {"type": "Feature", "properties": {"norad_id": 35895, "name": "COSMOS 2251 DEB", "group": "cosmos-2251-debris", "lat": 44.153048067345836, "lon": -1.7768350429153912, "alt_km": 762.5447512970795, "timestamp": "2025-12-15T22:44:29.327163+00:00", "meta": {"OBJECT_NAME": "COSMOS 2251 DEB", "OBJECT_ID": "1993-036AUJ", "EPOCH": "2025-12-11T07:10:31.732032", "MEAN_MOTION": 14.01513994, "ECCENTRICITY": 0.01987879, "INCLINATION": 74.0502, "RA_OF_ASC_NODE": 350.1634, "ARG_OF_PERICENTER": 88.7843, "MEAN_ANOMALY": 273.6056, "EPHEMERIS_TYPE": 0, "CLASSIFICATION_TYPE": "U", "NORAD_CAT_ID": 35895, "ELEMENT_SET_NO": 999, "REV_AT_EPOCH": 58992, "BSTAR": 0.0020881347, "MEAN_MOTION_DOT": 3.73e-05, "MEAN_MOTION_DDOT": 0}, "tle": {"line1": "1 35895U 93036AUJ 25345.29897838  .00003730  00000+0  20881-2 0  9997", "line2": "2 35895  74.0502 350.1634 0198787  88.7843 273.6056 14.01513994589929"}}, "geometry": {"type": "Point", "coordinates": [-1.7768350429153912, 44.153048067345836]}}, {"type": "Feature", "properties": {"norad_id": 35898, "name": "COSMOS 2251 DEB", "group": "cosmos-2251-debris", "lat": -73.79692839240066, "lon": -167.90887041772928, "alt_km": 643.4676689412163, "timestamp": "2025-12-15T22:44:29.327174+00:00", "meta": {"OBJECT_NAME": "COSMOS 2251 DEB", "OBJECT_ID": "1993-036AUM", "EPOCH": "2025-12-11T03:33:58.696128", "MEAN_MOTION": 14.94658859, "ECCENTRICITY": 0.00792199, "INCLINATION": 73.9916, "RA_OF_ASC_NODE": 300.6702, "ARG_OF_PERICENTER": 84.5945, "MEAN_ANOMALY": 290.8859, "EPHEMERIS_TYPE": 0, "CLASSIFICATION_TYPE": "U", "NORAD_CAT_ID": 35898, "ELEMENT_SET_NO": 999, "REV_AT_EPOCH": 66786, "BSTAR": 0.001087469, "MEAN_MOTION_DOT": 0.00012532, "MEAN_MOTION_DDOT": 0}, "tle": {"line1": "1 35898U 93036AUM 25345.14859602  .00012532  00000+0  10875-2 0  9993", "line2": "2 35898  73.9916 300.6702 0079219  84.5945 290.8859 14.94658859667864"}}, "geometry": {"type": "Point", "coordinates": [-167.90887041772928, -73.79692839240066]}}, {"type": "Feature", "properties": {"norad_id": 35901, "name": "COSMOS 2251 DEB", "group": "cosmos-2251-debris", "lat": 53.287470037171055, "lon": 38.88506359379172, "alt_km": 537.3592724099799, "timestamp": "2025-12-15T22:44:29.327184+00:00", "meta": {"OBJECT_NAME": "COSMOS 2251 DEB", "OBJECT_ID": "1993-036AUQ", "EPOCH": "2025-12-07T10:36:21.692736", "MEAN_MOTION": 15.06319673, "ECCENTRICITY": 0.00066034, "INCLINATION": 74.0121, "RA_OF_ASC_NODE": 33.7639, "ARG_OF_PERICENTER": 0.5644, "MEAN_ANOMALY": 13.1472, "EPHEMERIS_TYPE": 0, "CLASSIFICATION_TYPE": "U", "NORAD_CAT_ID": 35901, "ELEMENT_SET_NO": 999, "REV_AT_EPOCH": 86047, "BSTAR": 0.0047775116, "MEAN_MOTION_DOT": 0.0007096, "MEAN_MOTION_DDOT": 0}, "tle": {"line1": "1 35901U 93036AUQ 25341.44191774  .00070960  00000+0  47775-2 0  9994", "line2": "2 35901  74.0121  33.7639 0006603   0.5644  13.1472 15.06319673860474"}}, "geometry": {"type": "Point", "coordinates": [38.88506359379172, 53.287470037171055]}}, {"type": "Feature", "properties": {"norad_id": 35902, "name": "COSMOS 2251 DEB", "group": "cosmos-2251-debris", "lat": 42.13171853070456, "lon": 33.701193104139655, "alt_km": 863.2639122369128, "timestamp": "2025-12-15T22:44:29.327194+00:00", "meta": {"OBJECT_NAME": "COSMOS 2251 DEB", "OBJECT_ID": "1993-036AUR", "EPOCH": "2025-12-12T01:33:56.017152", "MEAN_MOTION": 14.26898947, "ECCENTRICITY": 0.01020569, "INCLINATION": 73.9828, "RA_OF_ASC_NODE": 235.8058, "ARG_OF_PERICENTER": 350.6999, "MEAN_ANOMALY": 9.2255, "EPHEMERIS_TYPE": 0, "CLASSIFICATION_TYPE": "U", "NORAD_CAT_ID": 35902, "ELEMENT_SET_NO": 999, "REV_AT_EPOCH": 61120, "BSTAR": 0.0016300387, "MEAN_MOTION_DOT": 4.159e-05, "MEAN_MOTION_DDOT": 0}, "tle": {"line1": "1 35902U 93036AUR 25346.06523168  .00004159  00000+0  16300-2 0  9991", "line2": "2 35902  73.9828 235.8058 0102056 350.6999   9.2255 14.26898947611205"}}, "geometry": {"type": "Point", "coordinates": [33.701193104139655, 42.13171853070456]}}, {"type": "Feature", "properties": {"norad_id": 35905, "name": "COSMOS 2251 DEB", "group": "cosmos-2251-debris", "lat": -18.4276795919544, "lon": 29.775380322329962, "alt_km": 567.9264964370823, "timestamp": "2025-12-15T22:44:29.327205+00:00", "meta": {"OBJECT_NAME": "COSMOS 2251 DEB", "OBJECT_ID": "1993-036AUU", "EPOCH": "2025-12-15T07:25:55.531200", "MEAN_MOTION": 14.99062217, "ECCENTRICITY": 0.00907412, "INCLINATION": 74.032, "RA_OF_ASC_NODE": 205.5952, "ARG_OF_PERICENTER": 285.0687, "MEAN_ANOMALY": 74.0472, "EPHEMERIS_TYPE": 0, "CLASSIFICATION_TYPE": "U", "NORAD_CAT_ID": 35905, "ELEMENT_SET_NO": 999, "REV_AT_EPOCH": 88621, "BSTAR": 0.0003271254, "MEAN_MOTION_DOT": 4.283e-05, "MEAN_MOTION_DDOT": 0}, "tle": {"line1": "1 35905U 93036AUU 25349.30967050  .00004283  00000+0  32713-3 0  9991", "line2": "2 35905  74.0320 205.5952 0090741 285.0687  74.0472 14.99062217886215"}}, "geometry": {"type": "Point", "coordinates": [29.775380322329962, -18.4276795919544]}}, {"type": "Feature", "properties": {"norad_id": 35959, "name": "COSMOS 2251 DEB", "group": "cosmos-2251-debris", "lat": -53.914621786618554, "lon": -76.93878171787037, "alt_km": 782.6638814203034, "timestamp": "2025-12-15T22:44:29.327215+00:00", "meta": {"OBJECT_NAME": "COSMOS 2251 DEB", "OBJECT_ID": "1993-036AUZ", "EPOCH": "2025-12-13T07:23:22.047648", "MEAN_MOTION": 14.34136813, "ECCENTRICITY": 0.00215686, "INCLINATION": 74.0325, "RA_OF_ASC_NODE": 311.0234, "ARG_OF_PERICENTER": 31.3363, "MEAN_ANOMALY": 328.9069, "EPHEMERIS_TYPE": 0, "CLASSIFICATION_TYPE": "U", "NORAD_CAT_ID": 35959, "ELEMENT_SET_NO": 999, "REV_AT_EPOCH": 84936, "BSTAR": 0.00020716976, "MEAN_MOTION_DOT": 5.55e-06, "MEAN_MOTION_DDOT": 0}, "tle": {"line1": "1 35959U 93036AUZ 25347.30789407  .00000555  00000+0  20717-3 0  9995", "line2": "2 35959  74.0325 311.0234 0021568  31.3363 328.9069 14.34136813849360"}}, "geometry": {"type": "Point", "coordinates": [-76.93878171787037, -53.914621786618554]}}, {"type": "Feature", "properties": {"norad_id": 35961, "name": "COSMOS 2251 DEB", "group": "cosmos-2251-debris", "lat": -73.037589749084, "lon": 89.50595054952898, "alt_km": 976.0217169375946, "timestamp": "2025-12-15T22:44:29.327225+00:00", "meta": {"OBJECT_NAME": "COSMOS 2251 DEB", "OBJECT_ID": "1993-036AVB", "EPOCH": "2025-12-13T08:00:02.001600", "MEAN_MOTION": 14.05391131, "ECCENTRICITY": 0.01919644, "INCLINATION": 73.9252, "RA_OF_ASC_NODE": 203.1346, "ARG_OF_PERICENTER": 136.4306, "MEAN_ANOMALY": 225.2177, "EPHEMERIS_TYPE": 0, "CLASSIFICATION_TYPE": "U", "NORAD_CAT_ID": 35961, "ELEMENT_SET_NO": 999, "REV_AT_EPOCH": 62690, "BSTAR": 0.0012957736, "MEAN_MOTION_DOT": 2.456e-05, "MEAN_MOTION_DDOT": 0}, "tle": {"line1": "1 35961U 93036AVB 25347.33335650  .00002456  00000+0  12958-2 0  9997", "line2": "2 35961  73.9252 203.1346 0191964 136.4306 225.2177 14.05391131626903"}}, "geometry": {"type": "Point", "coordinates": [89.50595054952898, -73.037589749084]}}]}